CCSDS_OMM_VERS = 2.0
CREATION_DATE  = 
ORIGINATOR     = 

OBJECT_NAME    = ALOS (DAICHI)
OBJECT_ID      = 2006-002A
CENTER_NAME    = EARTH
REF_FRAME      = TEME
TIME_SYSTEM    = UTC
MEAN_ELEMENT_THEORY = SGP/SGP4

EPOCH          = 2026-01-23T20:12:40.387968
MEAN_MOTION    = 14.69644204
ECCENTRICITY   = .00022036
INCLINATION    = 98.1154
RA_OF_ASC_NODE = 340.0501
ARG_OF_PERICENTER = 81.8971
MEAN_ANOMALY   = 278.2485

EPHEMERIS_TYPE = 0
CLASSIFICATION_TYPE = U
NORAD_CAT_ID   = 28931
ELEMENT_SET_NO = 999
REV_AT_EPOCH   = 6689
BSTAR          = .40996343E-3
MEAN_MOTION_DOT = .2389E-4
MEAN_MOTION_DDOT = 0

CCSDS_OMM_VERS = 2.0
CREATION_DATE  = 
ORIGINATOR     = 

OBJECT_NAME    = H-2A R/B
OBJECT_ID      = 2006-002B
CENTER_NAME    = EARTH
REF_FRAME      = TEME
TIME_SYSTEM    = UTC
MEAN_ELEMENT_THEORY = SGP/SGP4

EPOCH          = 2026-01-23T15:48:47.495520
MEAN_MOTION    = 15.15488259
ECCENTRICITY   = .00540145
INCLINATION    = 98.2347
RA_OF_ASC_NODE = 166.8678
ARG_OF_PERICENTER = 35.5522
MEAN_ANOMALY   = 324.9288

EPHEMERIS_TYPE = 0
CLASSIFICATION_TYPE = U
NORAD_CAT_ID   = 28932
ELEMENT_SET_NO = 999
REV_AT_EPOCH   = 8761
BSTAR          = .6620227E-3
MEAN_MOTION_DOT = .12936E-3
MEAN_MOTION_DDOT = 0

CCSDS_OMM_VERS = 2.0
CREATION_DATE  = 
ORIGINATOR     = 

OBJECT_NAME    = RESURS-DK 1
OBJECT_ID      = 2006-021A
CENTER_NAME    = EARTH
REF_FRAME      = TEME
TIME_SYSTEM    = UTC
MEAN_ELEMENT_THEORY = SGP/SGP4

EPOCH          = 2026-01-23T21:32:34.662624
MEAN_MOTION    = 15.12445924
ECCENTRICITY   = .00051424
INCLINATION    = 69.9350
RA_OF_ASC_NODE = 352.8629
ARG_OF_PERICENTER = 218.1144
MEAN_ANOMALY   = 141.9659

EPHEMERIS_TYPE = 0
CLASSIFICATION_TYPE = U
NORAD_CAT_ID   = 29228
ELEMENT_SET_NO = 999
REV_AT_EPOCH   = 8075
BSTAR          = .27476998E-3
MEAN_MOTION_DOT = .4683E-4
MEAN_MOTION_DDOT = 0

CCSDS_OMM_VERS = 2.0
CREATION_DATE  = 
ORIGINATOR     = 

OBJECT_NAME    = CZ-4B R/B
OBJECT_ID      = 2006-046C
CENTER_NAME    = EARTH
REF_FRAME      = TEME
TIME_SYSTEM    = UTC
MEAN_ELEMENT_THEORY = SGP/SGP4

EPOCH          = 2026-01-23T22:38:13.271424
MEAN_MOTION    = 15.16380578
ECCENTRICITY   = .00350086
INCLINATION    = 97.5676
RA_OF_ASC_NODE = 68.9681
ARG_OF_PERICENTER = 63.8774
MEAN_ANOMALY   = 296.6054

EPHEMERIS_TYPE = 0
CLASSIFICATION_TYPE = U
NORAD_CAT_ID   = 29507
ELEMENT_SET_NO = 999
REV_AT_EPOCH   = 5326
BSTAR          = .42889748E-3
MEAN_MOTION_DOT = .8391E-4
MEAN_MOTION_DDOT = 0

CCSDS_OMM_VERS = 2.0
CREATION_DATE  = 
ORIGINATOR     = 

OBJECT_NAME    = CZ-2C R/B
OBJECT_ID      = 2007-010B
CENTER_NAME    = EARTH
REF_FRAME      = TEME
TIME_SYSTEM    = UTC
MEAN_ELEMENT_THEORY = SGP/SGP4

EPOCH          = 2026-01-23T13:36:43.412832
MEAN_MOTION    = 14.20229144
ECCENTRICITY   = .00600175
INCLINATION    = 98.3971
RA_OF_ASC_NODE = 139.1133
ARG_OF_PERICENTER = 65.9643
MEAN_ANOMALY   = 294.7800

EPHEMERIS_TYPE = 0
CLASSIFICATION_TYPE = U
NORAD_CAT_ID   = 31114
ELEMENT_SET_NO = 999
REV_AT_EPOCH   = 97331
BSTAR          = .14833846E-3
MEAN_MOTION_DOT = .282E-5
MEAN_MOTION_DDOT = 0

CCSDS_OMM_VERS = 2.0
CREATION_DATE  = 
ORIGINATOR     = 

OBJECT_NAME    = COSMO-SKYMED 1
OBJECT_ID      = 2007-023A
CENTER_NAME    = EARTH
REF_FRAME      = TEME
TIME_SYSTEM    = UTC
MEAN_ELEMENT_THEORY = SGP/SGP4

EPOCH          = 2026-01-23T23:52:39.940608
MEAN_MOTION    = 14.96144468
ECCENTRICITY   = .00012137
INCLINATION    = 97.8843
RA_OF_ASC_NODE = 214.6832
ARG_OF_PERICENTER = 90.3358
MEAN_ANOMALY   = 269.8002

EPHEMERIS_TYPE = 0
CLASSIFICATION_TYPE = U
NORAD_CAT_ID   = 31598
ELEMENT_SET_NO = 999
REV_AT_EPOCH   = 822
BSTAR          = .59836349E-3
MEAN_MOTION_DOT = .668E-4
MEAN_MOTION_DDOT = 0

CCSDS_OMM_VERS = 2.0
CREATION_DATE  = 
ORIGINATOR     = 

OBJECT_NAME    = COSMOS 2428
OBJECT_ID      = 2007-029A
CENTER_NAME    = EARTH
REF_FRAME      = TEME
TIME_SYSTEM    = UTC
MEAN_ELEMENT_THEORY = SGP/SGP4

EPOCH          = 2026-01-24T00:06:13.454496
MEAN_MOTION    = 14.12919063
ECCENTRICITY   = .00062409
INCLINATION    = 70.9402
RA_OF_ASC_NODE = 297.1460
ARG_OF_PERICENTER = 327.8147
MEAN_ANOMALY   = 32.2592

EPHEMERIS_TYPE = 0
CLASSIFICATION_TYPE = U
NORAD_CAT_ID   = 31792
ELEMENT_SET_NO = 999
REV_AT_EPOCH   = 95778
BSTAR          = .29100686E-3
MEAN_MOTION_DOT = .494E-5
MEAN_MOTION_DDOT = 0

CCSDS_OMM_VERS = 2.0
CREATION_DATE  = 
ORIGINATOR     = 

OBJECT_NAME    = SL-16 R/B
OBJECT_ID      = 2007-029B
CENTER_NAME    = EARTH
REF_FRAME      = TEME
TIME_SYSTEM    = UTC
MEAN_ELEMENT_THEORY = SGP/SGP4

EPOCH          = 2026-01-23T22:35:59.524224
MEAN_MOTION    = 14.14822316
ECCENTRICITY   = .00019717
INCLINATION    = 70.9740
RA_OF_ASC_NODE = 266.4485
ARG_OF_PERICENTER = 272.1314
MEAN_ANOMALY   = 99.0809

EPHEMERIS_TYPE = 0
CLASSIFICATION_TYPE = U
NORAD_CAT_ID   = 31793
ELEMENT_SET_NO = 999
REV_AT_EPOCH   = 95904
BSTAR          = .10174113E-4
MEAN_MOTION_DOT = -.28E-6
MEAN_MOTION_DDOT = 0

CCSDS_OMM_VERS = 2.0
CREATION_DATE  = 
ORIGINATOR     = 

OBJECT_NAME    = KORONAS-FOTON
OBJECT_ID      = 2009-003A
CENTER_NAME    = EARTH
REF_FRAME      = TEME
TIME_SYSTEM    = UTC
MEAN_ELEMENT_THEORY = SGP/SGP4

EPOCH          = 2026-01-23T19:33:12.613248
MEAN_MOTION    = 15.42143208
ECCENTRICITY   = .00099478
INCLINATION    = 82.4333
RA_OF_ASC_NODE = 322.4813
ARG_OF_PERICENTER = 330.0927
MEAN_ANOMALY   = 29.9750

EPHEMERIS_TYPE = 0
CLASSIFICATION_TYPE = U
NORAD_CAT_ID   = 33504
ELEMENT_SET_NO = 999
REV_AT_EPOCH   = 93882
BSTAR          = .36600101E-3
MEAN_MOTION_DOT = .15743E-3
MEAN_MOTION_DDOT = 0

CCSDS_OMM_VERS = 2.0
CREATION_DATE  = 
ORIGINATOR     = 

OBJECT_NAME    = CZ-2C R/B
OBJECT_ID      = 2011-030B
CENTER_NAME    = EARTH
REF_FRAME      = TEME
TIME_SYSTEM    = UTC
MEAN_ELEMENT_THEORY = SGP/SGP4

EPOCH          = 2026-01-23T21:09:39.420864
MEAN_MOTION    = 14.81046142
ECCENTRICITY   = .00537369
INCLINATION    = 97.8477
RA_OF_ASC_NODE = 342.0728
ARG_OF_PERICENTER = 134.9662
MEAN_ANOMALY   = 246.8856

EPHEMERIS_TYPE = 0
CLASSIFICATION_TYPE = U
NORAD_CAT_ID   = 37731
ELEMENT_SET_NO = 999
REV_AT_EPOCH   = 78346
BSTAR          = .25976562E-3
MEAN_MOTION_DOT = .2011E-4
MEAN_MOTION_DDOT = 0

CCSDS_OMM_VERS = 2.0
CREATION_DATE  = 
ORIGINATOR     = 

OBJECT_NAME    = H-2A R/B
OBJECT_ID      = 2012-025E
CENTER_NAME    = EARTH
REF_FRAME      = TEME
TIME_SYSTEM    = UTC
MEAN_ELEMENT_THEORY = SGP/SGP4

EPOCH          = 2026-01-23T21:13:27.435648
MEAN_MOTION    = 14.94757127
ECCENTRICITY   = .00460952
INCLINATION    = 98.4656
RA_OF_ASC_NODE = 347.3866
ARG_OF_PERICENTER = 98.9532
MEAN_ANOMALY   = 261.6909

EPHEMERIS_TYPE = 0
CLASSIFICATION_TYPE = U
NORAD_CAT_ID   = 38341
ELEMENT_SET_NO = 999
REV_AT_EPOCH   = 74152
BSTAR          = .49417327E-3
MEAN_MOTION_DOT = .5417E-4
MEAN_MOTION_DDOT = 0

CCSDS_OMM_VERS = 2.0
CREATION_DATE  = 
ORIGINATOR     = 

OBJECT_NAME    = SHIJIAN-16 (SJ-16)
OBJECT_ID      = 2013-057A
CENTER_NAME    = EARTH
REF_FRAME      = TEME
TIME_SYSTEM    = UTC
MEAN_ELEMENT_THEORY = SGP/SGP4

EPOCH          = 2026-01-23T23:29:01.528224
MEAN_MOTION    = 14.92193544
ECCENTRICITY   = .00176781
INCLINATION    = 74.9719
RA_OF_ASC_NODE = 269.7246
ARG_OF_PERICENTER = 222.2034
MEAN_ANOMALY   = 137.7794

EPHEMERIS_TYPE = 0
CLASSIFICATION_TYPE = U
NORAD_CAT_ID   = 39358
ELEMENT_SET_NO = 999
REV_AT_EPOCH   = 66483
BSTAR          = .28610725E-3
MEAN_MOTION_DOT = .2895E-4
MEAN_MOTION_DDOT = 0

