ALOS (DAICHI)           
1 28931U 06002A   26023.84213412  .00002389  00000+0  40996-3 0  9991
2 28931  98.1154 340.0501 0002203  81.8971 278.2485 14.69644204 66892
H-2A R/B                
1 28932U 06002B   26023.65888305  .00012936  00000+0  66202-3 0  9997
2 28932  98.2347 166.8678 0054014  35.5522 324.9288 15.15488259 87613
RESURS-DK 1             
1 29228U 06021A   26023.89762341  .00004683  00000+0  27477-3 0  9995
2 29228  69.9350 352.8629 0005142 218.1144 141.9659 15.12445924 80757
CZ-4B R/B               
1 29507U 06046C   26023.94320916  .00008391  00000+0  42890-3 0  9992
2 29507  97.5676  68.9681 0035008  63.8774 296.6054 15.16380578 53266
CZ-2C R/B               
1 31114U 07010B   26023.56716913  .00000282  00000+0  14834-3 0  9993
2 31114  98.3971 139.1133 0060017  65.9643 294.7800 14.20229144973319
COSMO-SKYMED 1          
1 31598U 07023A   26023.99490672  .00006680  00000+0  59836-3 0  9990
2 31598  97.8843 214.6832 0001213  90.3358 269.8002 14.96144468  8224
COSMOS 2428             
1 31792U 07029A   26024.00432239  .00000494  00000+0  29101-3 0  9999
2 31792  70.9402 297.1460 0006240 327.8147  32.2592 14.12919063957784
SL-16 R/B               
1 31793U 07029B   26023.94166116 -.00000028  00000+0  10174-4 0  9995
2 31793  70.9740 266.4485 0001971 272.1314  99.0809 14.14822316959049
KORONAS-FOTON           
1 33504U 09003A   26023.81472932  .00015743  00000+0  36600-3 0  9993
2 33504  82.4333 322.4813 0009947 330.0927  29.9750 15.42143208938828
CZ-2C R/B               
1 37731U 11030B   26023.88170626  .00002011  00000+0  25977-3 0  9993
2 37731  97.8477 342.0728 0053736 134.9662 246.8856 14.81046142783464
H-2A R/B                
1 38341U 12025E   26023.88434532  .00005417  00000+0  49417-3 0  9993
2 38341  98.4656 347.3866 0046095  98.9532 261.6909 14.94757127741525
SHIJIAN-16 (SJ-16)      
1 39358U 13057A   26023.97848991  .00002895  00000+0  28611-3 0  9996
2 39358  74.9719 269.7246 0017678 222.2034 137.7794 14.92193544664834
